INTELSAT 9 (IS-9)       
1 26451U 00043A   25186.34746355 -.00000222  00000+0  00000+0 0  9999
2 26451   9.6202  52.3435 0002187 119.1638 220.9555  0.99407826 40656
INTELSAT 10 (IS-10)     
1 26766U 01019A   25187.14895495  .00000000  00000+0  00000+0 0  9994
2 26766   8.2436  62.7840 0003030  24.0103 317.2871  1.00271562 42149
INTELSAT 902 (IS-902)   
1 26900U 01039A   25183.67680010 -.00000278  00000+0  00000+0 0  9993
2 26900   5.2316  76.0766 0004202  25.2989  13.1424  1.00272497 87193
INTELSAT 904 (IS-904)   
1 27380U 02007A   25187.48729491 -.00000193  00000+0  00000+0 0  9998
2 27380   6.0521  73.3458 0002371  36.4471 322.8441  1.00272336 48295
DIRECTV 5 (TEMPO 1)     
1 27426U 02023A   25187.36811162 -.00000044  00000+0  00000+0 0  9996
2 27426   3.9913  79.6749 0003528  32.5260 194.7883  1.00272532 84651
INTELSAT 905 (IS-905)   
1 27438U 02027A   25187.34882250  .00000106  00000+0  00000+0 0  9995
2 27438   5.8808  73.9834 0002641  29.1396 169.8007  1.00273597 47895
GALAXY 3C (G-3C)        
1 27445U 02030A   25187.54535378 -.00000138  00000+0  00000+0 0  9991
2 27445   2.8426  82.3531 0003305  43.0725 260.8280  1.00272091 43027
INTELSAT 906 (IS-906)   
1 27513U 02041A   25187.59894510  .00000025  00000+0  00000+0 0  9994
2 27513   4.9222  77.2115 0003705  21.6871 105.6831  1.00272808 83566
GALAXY 23 (G-23)        
1 27854U 03034A   25187.31481562 -.00000079  00000+0  00000+0 0  9994
2 27854   2.3017  83.9694 0001178  80.7752  55.7857  0.99384149 80277
GALAXY 13 (HORIZONS-1)  
1 27954U 03044A   25187.53440685  .00000149  00000+0  00000+0 0  9998
2 27954   0.5237  89.2830 0001890   5.9359 231.9100  1.00271961 43106
INTELSAT 10-02          
1 28358U 04022A   25187.42115818  .00000006  00000+0  00000+0 0  9991
2 28358   0.0281 282.7030 0000805 186.5229 326.0595  1.00271639 77088
XM-3 (RHYTHM)           
1 28626U 05008A   25187.54709139 -.00000182  00000+0  00000+0 0  9998
2 28626   0.0347 161.7948 0000720   6.8108 226.7843  1.00276656 39151
DIRECTV 8               
1 28659U 05019A   25187.61308302  .00000018  00000+0  00000+0 0  9998
2 28659   0.0191  29.1251 0003175  78.0813 279.2906  1.00272294 73604
GALAXY 28 (G-28)        
1 28702U 05022A   25187.54657010 -.00000172  00000+0  00000+0 0  9998
2 28702   2.4071  83.3009 0002638  33.4139 276.1141  1.00270879 48514
GALAXY 16 (G-16)        
1 29236U 06023A   25187.54457185 -.00000109  00000+0  00000+0 0  9994
2 29236   0.0423 210.8028 0002972 262.4307 268.5649  1.00271520 69506
DIRECTV 9S              
1 29494U 06043A   25187.54413745 -.00000098  00000+0  00000+0 0  9993
2 29494   1.5267  85.2333 0003183  22.6952 271.5261  1.00272338 47917
GALAXY 17 (G-17)        
1 31307U 07016B   25187.54735203 -.00000191  00000+0  00000+0 0  9990
2 31307   2.0950  84.3839 0002164   2.5089 309.9286  1.00270819 66337
DIRECTV 10              
1 31862U 07032A   25187.54378993 -.00000086  00000+0  00000+0 0  9996
2 31862   0.0395 208.5622 0000347 316.1731 212.9900  1.00273464 42129
INTELSAT 11 (IS-11)     
1 32253U 07044B   25187.53353804  .00000014  00000+0  00000+0 0  9997
2 32253   2.6627  82.9984 0004349  75.5129 164.1137  0.99050622 65028
HORIZONS-2              
1 32388U 07063B   25187.54952404 -.00000238  00000+0  00000+0 0  9998
2 32388   1.7081  85.0300 0002322  33.7065 290.0657  1.00271872 64346
DIRECTV 11              
1 32729U 08013A   25187.54448498 -.00000108  00000+0  00000+0 0  9992
2 32729   0.0193 187.5355 0000154 106.6706  87.3725  1.00272618 42126
GALAXY 18 (G-18)        
1 32951U 08024A   25187.53979344  .00000042  00000+0  00000+0 0  9995
2 32951   0.0271  35.4922 0003435  76.3031 244.2790  1.00271294 42383
INTELSAT 25 (IS-25)     
1 33153U 08034A   25187.48651299 -.00000208  00000+0  00000+0 0  9996
2 33153   1.8147  84.6920 0003493  32.7837 310.8906  1.00271042 62222
GALAXY 19 (G-19)        
1 33376U 08045A   25187.54491937 -.00000122  00000+0  00000+0 0  9998
2 33376   0.0163 300.3162 0003067 170.0580 273.5575  1.00271562 61438
FM-5                    
1 35493U 09034A   25187.11878078 -.00000183  00000+0  00000+0 0  9994
2 35493   0.0159 307.9912 0000615  77.3800 215.5859  1.00270362 43170
INTELSAT 14 (IS-14)     
1 36097U 09064A   25187.41247014 -.00000256  00000+0  00000+0 0  9992
2 36097   0.0103  27.2733 0002767  87.1195 273.7419  1.00271784 57137
INTELSAT 15 (IS-15)     
1 36106U 09067A   25187.58102999 -.00000169  00000+0  00000+0 0  9999
2 36106   0.0190  67.1332 0002410  41.0901 110.8986  1.00272170 37768
DIRECTV 12              
1 36131U 09075A   25187.54378993 -.00000086  00000+0  00000+0 0  9999
2 36131   0.0184 204.6384 0000704 252.1110 281.0630  1.00273619 43083
INTELSAT 16 (IS-16)     
1 36397U 10006A   25187.54900275 -.00000227  00000+0  00000+0 0  9990
2 36397   0.0102 345.6759 0002395 134.0061 286.5283  1.00271019 56181
XM-5                    
1 37185U 10053A   25187.54135728 -.00000005  00000+0  00000+0 0  9995
2 37185   0.0478 273.0952 0000746 101.9714 349.3898  1.00267684 54011
INTELSAT 17 (IS-17)     
1 37238U 10065B   25187.43445087  .00000015  00000+0  00000+0 0  9997
2 37238   0.0379  79.6038 0002738  48.8951  18.5452  1.00272001 49788
INTELSAT 28 (IS-28)     
1 37392U 11016A   25187.41507655 -.00000208  00000+0  00000+0 0  9998
2 37392   0.9108  87.2975 0004409  10.3784 304.6938  1.00271950 49812
INTELSAT 18 (IS-18)     
1 37834U 11056A   25187.31429434  .00000070  00000+0  00000+0 0  9996
2 37834   0.0237  74.8112 0001990  24.9076 117.9682  1.00273296 50345
INTELSAT 22 (IS-22)     
1 38098U 12011A   25187.50710363 -.00000042  00000+0  00000+0 0  9996
2 38098   0.0246  65.6194 0001672  45.0082  68.7508  1.00271580  3728
INTELSAT 19 (IS-19)     
1 38356U 12030A   25187.52571881 -.00000040  00000+0  00000+0 0  9994
2 38356   0.0229  67.3332 0003192  42.4747 170.1999  1.00272069 46987
INTELSAT 20 (IS-20)     
1 38740U 12043A   25187.43497215 -.00000008  00000+0  00000+0 0  9997
2 38740   0.0112  60.8235 0000976 136.0824 312.8330  1.00272644 47285
INTELSAT 21 (IS-21)     
1 38749U 12045A   25187.48130016 -.00000268  00000+0  00000+0 0  9994
2 38749   0.0304 281.9946 0001561 222.0283 255.9510  1.00272698 47059
INTELSAT 23 (IS-23)     
1 38867U 12057A   25187.48225584 -.00000268  00000+0  00000+0 0  9993
2 38867   0.0333 110.3055 0001664 298.4818 356.5155  1.00255467 46487
FM-6                    
1 39360U 13058A   25187.46974507  .00000000  00000+0  00000+0 0  9991
2 39360   0.0434  77.6982 0001521  99.8751 160.0665  1.00272450 42596
INTELSAT 30 (IS-30)     
1 40271U 14062A   25186.90338266 -.00000134  00000+0  00000+0 0  9993
2 40271   0.0123  36.8434 0001655 357.7846 119.6573  1.00271267  3312
DIRECTV 14              
1 40333U 14078B   25187.54448498 -.00000108  00000+0  00000+0 0  9990
2 40333   0.0035  93.9718 0000551  58.1196 229.4675  1.00271280 38570
DIRECTV 15              
1 40663U 15026A   25187.37827362 -.00000085  00000+0  00000+0 0  9996
2 40663   0.0142  66.0390 0000397   1.2634 250.6120  1.00271916 36997
SKY MEXICO-1            
1 40664U 15026B   25187.54856836 -.00000217  00000+0  00000+0 0  9991
2 40664   0.0210  59.8769 0002246  47.1901 296.4273  1.00272136 36986
INTELSAT 34 (IS-34)     
1 40874U 15039A   25187.48182145 -.00000268  00000+0  00000+0 0  9992
2 40874   0.0178 348.0819 0001980  14.6221  39.9628  1.00264846 36151
INTELSAT 31 (IS-31)     
1 41581U 16035A   25187.29135251 -.00000118  00000+0  00000+0 0  9994
2 41581   0.0172  16.7008 0008851 210.7675  66.7926  1.00162688 33210
INTELSAT 36 (IS-36)     
1 41747U 16053A   25187.43497215 -.00000008  00000+0  00000+0 0  9993
2 41747   0.0100  15.0822 0001877 333.4453 161.2190  1.00271854 32487
INTELSAT 32E (IS-32E)   
1 41945U 17007B   25187.48425410 -.00000252  00000+0  00000+0 0  9997
2 41945   0.0168  67.9449 0000865 317.3516  30.5631  1.00270851 30751
INTELSAT 35E (IS-35E)   
1 42818U 17041A   25187.41455527 -.00000221  00000+0  00000+0 0  9996
2 42818   0.0149 332.3190 0002252 129.4451 297.6279  1.00272819 29347
INTELSAT 37E (IS-37E)   
1 42950U 17059A   25187.41785672 -.00000124  00000+0  00000+0 0  9991
2 42950   0.0180  45.2117 0002856  62.6199 309.2363  1.00272018 28596
AZERSPACE 2 (IS-38)     
1 43632U 18074A   25187.57306861  .00000153  00000+0  00000+0 0  9994
2 43632   0.0182 344.2906 0001560 109.8771  82.0428  1.00270719 24988
HORIZONS-3E             
1 43633U 18074B   25187.45494472 -.00000013  00000+0  00000+0 0  9994
2 43633   0.0647 196.3237 0000962  98.7011 322.4353  1.00272830 24878
AT&T T-16               
1 44333U 19034A   25187.54413745 -.00000098  00000+0  00000+0 0  9996
2 44333   0.0246  75.5437 0000870 296.8937   7.3582  1.00268686 22164
INTELSAT 39 (IS-39)     
1 44476U 19049B   25187.36223759  .00000050  00000+0  00000+0 0  9991
2 44476   0.0180 344.6196 0001218 357.9077 134.4053  1.00271345 21667
GALAXY 30 (G-30)        
1 46114U 20056C   25187.53935903  .00000054  00000+0  00000+0 0  9996
2 46114   0.0188  26.9030 0002447  72.2568 254.7870  1.00271582 17829
GALAXY 33 (G-33)        
1 54026U 22128A   25187.53779519  .00000096  00000+0  00000+0 0  9994
2 54026   0.0207  66.5179 0001877  37.5578 241.2804  1.00271813 10274
GALAXY 34 (G-34)        
1 54027U 22128B   25187.53857711  .00000076  00000+0  00000+0 0  9994
2 54027   0.0108  56.1002 0001731  52.6902 240.8447  1.00271125 10446
GALAXY 31 (G-31)        
1 54243U 22153A   25186.96909476  .00000030  00000+0  00000+0 0  9994
2 54243   0.0262 100.4676 0000543  18.2110  33.3943  1.00271680  3664
GALAXY 32 (G-32)        
1 54244U 22153B   25187.54613571 -.00000157  00000+0  00000+0 0  9999
2 54244   0.0110  17.4124 0001936  34.2944 338.6685  1.00271941  9673
GALAXY 35 (G-35)        
1 54741U 22170A   25187.54570130 -.00000145  00000+0  00000+0 0  9990
2 54741   0.0207  91.0547 0002197   6.4856 290.5849  1.00272488  9420
GALAXY 36 (G-36)        
1 54742U 22170B   25187.54648323 -.00000168  00000+0  00000+0 0  9996
2 54742   0.0219  51.4245 0002956  51.0714 290.0062  1.00269766  9305
GALAXY 37 (G-37)        
1 57493U 23112A   25187.58156734  .00000065  00000+0  00000+0 0  9998
2 57493   0.0075 345.2282 0002109 118.8863 263.0491  1.00272151  7051
